{
  "type": "FeatureCollection",
  "features": [
    {
      "type": "Feature",
      "properties": {
        "norad_id": 58701,
        "name": "TIANMU-1 16",
        "group": "weather",
        "lat": 6.246342583972277,
        "lon": -13.020092834534877,
        "alt_km": 496.82403910411995,
        "timestamp": "2025-12-11T07:02:23.376897+00:00",
        "meta_object_name": "TIANMU-1 16",
        "meta_object_id": "2024-004B",
        "meta_epoch": "2025-12-10T22:24:12.186432",
        "meta_mean_motion": 15.24392406,
        "meta_eccentricity": 0.00045825,
        "meta_inclination": 97.4571,
        "meta_ra_of_asc_node": 165.8004,
        "meta_arg_of_pericenter": 304.1427,
        "meta_mean_anomaly": 55.9376,
        "meta_ephemeris_type": 0,
        "meta_classification_type": "U",
        "meta_norad_cat_id": 58701,
        "meta_element_set_no": 999,
        "meta_rev_at_epoch": 10707,
        "meta_bstar": 0.00043821641,
        "meta_mean_motion_dot": 0.00010675,
        "meta_mean_motion_ddot": 0,
        "tle_line1": "1 58701U 24004B   25344.93347438  .00010675  00000+0  43822-3 0  9990",
        "tle_line2": "2 58701  97.4571 165.8004 0004582 304.1427  55.9376 15.24392406107076"
      },
      "geometry": {
        "type": "Point",
        "coordinates": [
          -13.020092834534877,
          6.246342583972277
        ]
      }
    },
    {
      "type": "Feature",
      "properties": {
        "norad_id": 58702,
        "name": "TIANMU-1 17",
        "group": "weather",
        "lat": -75.79451646273199,
        "lon": -44.608186811108304,
        "alt_km": 498.09189278613576,
        "timestamp": "2025-12-11T07:02:23.376907+00:00",
        "meta_object_name": "TIANMU-1 17",
        "meta_object_id": "2024-004C",
        "meta_epoch": "2025-12-10T23:36:37.080864",
        "meta_mean_motion": 15.24438842,
        "meta_eccentricity": 0.00037749,
        "meta_inclination": 97.4605,
        "meta_ra_of_asc_node": 166.2596,
        "meta_arg_of_pericenter": 307.9556,
        "meta_mean_anomaly": 52.134,
        "meta_ephemeris_type": 0,
        "meta_classification_type": "U",
        "meta_norad_cat_id": 58702,
        "meta_element_set_no": 999,
        "meta_rev_at_epoch": 10707,
        "meta_bstar": 0.00043781681,
        "meta_mean_motion_dot": 0.00010679,
        "meta_mean_motion_ddot": 0,
        "tle_line1": "1 58702U 24004C   25344.98376251  .00010679  00000+0  43782-3 0  9990",
        "tle_line2": "2 58702  97.4605 166.2596 0003774 307.9556  52.1340 15.24438842107077"
      },
      "geometry": {
        "type": "Point",
        "coordinates": [
          -44.608186811108304,
          -75.79451646273199
        ]
      }
    },
    {
      "type": "Feature",
      "properties": {
        "norad_id": 58703,
        "name": "TIANMU-1 18",
        "group": "weather",
        "lat": -10.540322627450472,
        "lon": 168.1603677402342,
        "alt_km": 495.2457154546464,
        "timestamp": "2025-12-11T07:02:23.376917+00:00",
        "meta_object_name": "TIANMU-1 18",
        "meta_object_id": "2024-004D",
        "meta_epoch": "2025-12-10T23:12:34.168896",
        "meta_mean_motion": 15.24426696,
        "meta_eccentricity": 0.0003116,
        "meta_inclination": 97.4622,
        "meta_ra_of_asc_node": 166.438,
        "meta_arg_of_pericenter": 308.9141,
        "meta_mean_anomaly": 51.1818,
        "meta_ephemeris_type": 0,
        "meta_classification_type": "U",
        "meta_norad_cat_id": 58703,
        "meta_element_set_no": 999,
        "meta_rev_at_epoch": 10707,
        "meta_bstar": 0.00040309893,
        "meta_mean_motion_dot": 9.822e-05,
        "meta_mean_motion_ddot": 0,
        "tle_line1": "1 58703U 24004D   25344.96706214  .00009822  00000+0  40310-3 0  9997",
        "tle_line2": "2 58703  97.4622 166.4380 0003116 308.9141  51.1818 15.24426696107074"
      },
      "geometry": {
        "type": "Point",
        "coordinates": [
          168.1603677402342,
          -10.540322627450472
        ]
      }
    },
    {
      "type": "Feature",
      "properties": {
        "norad_id": 58990,
        "name": "INSAT-3DS",
        "group": "weather",
        "lat": -0.00859190861847686,
        "lon": -92.06868987130687,
        "alt_km": 35778.905724236254,
        "timestamp": "2025-12-11T07:02:23.376929+00:00",
        "meta_object_name": "INSAT-3DS",
        "meta_object_id": "2024-033A",
        "meta_epoch": "2025-12-10T20:46:49.479744",
        "meta_mean_motion": 1.002745,
        "meta_eccentricity": 0.00015251,
        "meta_inclination": 0.0359,
        "meta_ra_of_asc_node": 129.2475,
        "meta_arg_of_pericenter": 134.2355,
        "meta_mean_anomaly": 210.134,
        "meta_ephemeris_type": 0,
        "meta_classification_type": "U",
        "meta_norad_cat_id": 58990,
        "meta_element_set_no": 999,
        "meta_rev_at_epoch": 4518,
        "meta_bstar": 0,
        "meta_mean_motion_dot": -1.51e-06,
        "meta_mean_motion_ddot": 0,
        "tle_line1": "1 58990U 24033A   25344.86585046 -.00000151  00000+0  00000+0 0  9999",
        "tle_line2": "2 58990   0.0359 129.2475 0001525 134.2355 210.1340  1.00274500 45184"
      },
      "geometry": {
        "type": "Point",
        "coordinates": [
          -92.06868987130687,
          -0.00859190861847686
        ]
      }
    },
    {
      "type": "Feature",
      "properties": {
        "norad_id": 59051,
        "name": "METEOR-M2 4",
        "group": "weather",
        "lat": -25.140378333654027,
        "lon": -53.66580572909593,
        "alt_km": 818.2575895502132,
        "timestamp": "2025-12-11T07:02:23.376940+00:00",
        "meta_object_name": "METEOR-M2 4",
        "meta_object_id": "2024-039A",
        "meta_epoch": "2025-12-10T22:43:04.266624",
        "meta_mean_motion": 14.22400886,
        "meta_eccentricity": 0.00071327,
        "meta_inclination": 98.6764,
        "meta_ra_of_asc_node": 301.8836,
        "meta_arg_of_pericenter": 3.6548,
        "meta_mean_anomaly": 356.4681,
        "meta_ephemeris_type": 0,
        "meta_classification_type": "U",
        "meta_norad_cat_id": 59051,
        "meta_element_set_no": 999,
        "meta_rev_at_epoch": 9250,
        "meta_bstar": 6.1688795e-05,
        "meta_mean_motion_dot": 9.4e-07,
        "meta_mean_motion_ddot": 0,
        "tle_line1": "1 59051U 24039A   25344.94657716  .00000094  00000+0  61689-4 0  9997",
        "tle_line2": "2 59051  98.6764 301.8836 0007132   3.6548 356.4681 14.22400886 92504"
      },
      "geometry": {
        "type": "Point",
        "coordinates": [
          -53.66580572909593,
          -25.140378333654027
        ]
      }
    },
    {
      "type": "Feature",
      "properties": {
        "norad_id": 60133,
        "name": "GOES 19",
        "group": "weather",
        "lat": -0.00014665723644213184,
        "lon": 110.67154967438347,
        "alt_km": 35791.644651066024,
        "timestamp": "2025-12-11T07:02:23.376954+00:00",
        "meta_object_name": "GOES 19",
        "meta_object_id": "2024-119A",
        "meta_epoch": "2025-12-10T20:02:01.271616",
        "meta_mean_motion": 1.00271191,
        "meta_eccentricity": 0.00013339,
        "meta_inclination": 0.0087,
        "meta_ra_of_asc_node": 100.8993,
        "meta_arg_of_pericenter": 207.6379,
        "meta_mean_anomaly": 356.5905,
        "meta_ephemeris_type": 0,
        "meta_classification_type": "U",
        "meta_norad_cat_id": 60133,
        "meta_element_set_no": 999,
        "meta_rev_at_epoch": 507,
        "meta_bstar": 0,
        "meta_mean_motion_dot": -2.43e-06,
        "meta_mean_motion_ddot": 0,
        "tle_line1": "1 60133U 24119A   25344.83473694 -.00000243  00000+0  00000+0 0  9990",
        "tle_line2": "2 60133   0.0087 100.8993 0001333 207.6379 356.5905  1.00271191  5071"
      },
      "geometry": {
        "type": "Point",
        "coordinates": [
          110.67154967438347,
          -0.00014665723644213184
        ]
      }
    },
    {
      "type": "Feature",
      "properties": {
        "norad_id": 65815,
        "name": "FENGYUN 3H",
        "group": "weather",
        "lat": -45.98824600633825,
        "lon": 95.84043820116617,
        "alt_km": 832.7257140765432,
        "timestamp": "2025-12-11T07:02:23.376964+00:00",
        "meta_object_name": "FENGYUN 3H",
        "meta_object_id": "2025-219A",
        "meta_epoch": "2025-12-10T21:31:11.673696",
        "meta_mean_motion": 14.1990391,
        "meta_eccentricity": 6.038e-05,
        "meta_inclination": 98.6582,
        "meta_ra_of_asc_node": 284.5271,
        "meta_arg_of_pericenter": 88.5652,
        "meta_mean_anomaly": 271.5594,
        "meta_ephemeris_type": 0,
        "meta_classification_type": "U",
        "meta_norad_cat_id": 65815,
        "meta_element_set_no": 999,
        "meta_rev_at_epoch": 1066,
        "meta_bstar": 0.00010561816,
        "meta_mean_motion_dot": 1.81e-06,
        "meta_mean_motion_ddot": 0,
        "tle_line1": "1 65815U 25219A   25344.89666289  .00000181  00000+0  10562-3 0  9992",
        "tle_line2": "2 65815  98.6582 284.5271 0000603  88.5652 271.5594 14.19903910 10660"
      },
      "geometry": {
        "type": "Point",
        "coordinates": [
          95.84043820116617,
          -45.98824600633825
        ]
      }
    }
  ]
}